ONEWEB-0311             
1 49097U 21075Y   26019.10902215 -.00000026  00000+0 -10064-3 0  9995
2 49097  87.9094  35.4825 0002133  93.6659 266.4717 13.17648450213998
ONEWEB-0312             
1 49098U 21075Z   26019.04826781  .00000055  00000+0  10915-3 0  9997
2 49098  87.9082  35.5170 0002005 101.8199 258.3157 13.17651057213961
ONEWEB-0313             
1 49099U 21075AA  26019.28100507  .00000013  00000+0  85029-6 0  9990
2 49099  87.9079  35.4773 0001922  93.2626 266.8726 13.17650571213980
ONEWEB-0314             
1 49100U 21075AB  26019.32332557  .00000055  00000+0  10749-3 0  9990
2 49100  87.9096  35.4266 0002078 102.1719 257.9646 13.17650516213964
ONEWEB-0315             
1 49101U 21075AC  26019.24108803 -.00000102  00000+0 -31991-3 0  9994
2 49101  87.8934  20.2127 0002165  86.4518 273.6858 13.12442983215639
ONEWEB-0316             
1 49102U 21075AD  26019.21331505  .00000036  00000+0  57918-4 0  9991
2 49102  87.9183   5.0431 0001876  85.3903 274.7443 13.18685175217575
ONEWEB-0317             
1 49103U 21075AE  26019.24446023 -.00000304  00000+0 -88013-3 0  9996
2 49103  87.8928  20.2340 0001032  99.3724 260.7522 13.12443229215656
ONEWEB-0318             
1 49104U 21075AF  26019.21001500  .00000030  00000+0  44254-4 0  9995
2 49104  87.9188   5.0318 0002091  86.7146 273.4226 13.18685318217530
